ORBCOMM FM115           
1 41186U 15081H   25331.10355154  .00000945  00000+0  21722-3 0  9997
2 41186  46.9996 344.5349 0000197 309.4647  50.6223 14.62871877531623
ORBCOMM FM108           
1 41187U 15081J   25330.61452346  .00001230  00000+0  29865-3 0  9998
2 41187  47.0036  59.7134 0002705 322.4059  37.6637 14.58481088530503
ORBCOMM FM117           
1 41188U 15081K   25331.19728266  .00001067  00000+0  26386-3 0  9993
2 41188  47.0020  55.6685 0002901 332.0988  27.9742 14.58524602530632
ORBCOMM FM116           
1 41189U 15081L   25330.83541366  .00000485  00000+0  13956-3 0  9990
2 41189  47.0003 147.1525 0002123 198.7044 161.3764 14.58605020529392
